OBJECT_NAME,OBJECT_ID,EPOCH,MEAN_MOTION,ECCENTRICITY,INCLINATION,RA_OF_ASC_NODE,ARG_OF_PERICENTER,MEAN_ANOMALY,EPHEMERIS_TYPE,CLASSIFICATION_TYPE,NORAD_CAT_ID,ELEMENT_SET_NO,REV_AT_EPOCH,BSTAR,MEAN_MOTION_DOT,MEAN_MOTION_DDOT
STARLINK-37892,2026-131H,2026-06-27T04:00:03.000096,15.80841778,.0001368,97.2831,199.0362,84.1394,172.5979,0,U,69485,999,361,-.38367E-3,-.73108E-3,0
STARLINK-37893,2026-131J,2026-06-27T04:00:03.000096,15.80837187,.0000923,97.2834,199.0383,109.9700,151.0344,0,U,69486,999,369,-.22643E-3,-.43338E-3,0
STARLINK-37842,2026-131K,2026-06-27T04:00:03.000096,15.80840570,.0001288,97.2835,199.0401,88.2985,176.9824,0,U,69487,999,361,-.28256E-3,-.53993E-3,0
STARLINK-37449,2026-131L,2026-06-27T04:00:03.000096,15.80828978,.0001039,97.2835,199.0412,80.6434,188.9190,0,U,69488,999,370,-.31027E-3,-.59204E-3,0
STARLINK-37831,2026-131M,2026-06-27T04:00:03.000096,15.80847270,.0000933,97.2837,199.0433,86.3674,187.4605,0,U,69489,999,227,-.40155E-3,-.76494E-3,0
STARLINK-37879,2026-131N,2026-06-27T04:00:03.000096,15.80823188,.0001139,97.2837,199.0453,76.5217,201.5885,0,U,69490,999,361,-.20971E-3,-.4014E-3,0
STARLINK-37856,2026-131P,2026-06-26T22:00:01.998720,15.80791088,.0001341,97.2838,198.7630,90.9350,161.8346,0,U,69491,999,363,.33791E-3,.64993E-3,0
STARLINK-37568,2026-131Q,2026-06-27T04:00:03.000096,15.80823133,.0001154,97.2838,199.0493,80.9858,205.6663,0,U,69492,999,370,-.73812E-4,-.14262E-3,0
STARLINK-37855,2026-131R,2026-06-27T01:25:12.487584,15.80931216,.0001439,97.2837,198.9196,41.7597,318.3781,0,U,69493,999,372,.37213E-3,.72109E-3,0
STARLINK-37854,2026-131S,2026-06-26T22:00:01.998720,15.80812769,.0001018,97.2836,198.7675,88.4428,174.7041,0,U,69494,999,363,.15854E-3,.30326E-3,0
STARLINK-37789,2026-131T,2026-06-27T04:00:03.000096,15.80805609,.0000895,97.2841,199.0537,103.5222,195.9597,0,U,69495,999,369,.1189E-3,.22681E-3,0
STARLINK-37839,2026-131U,2026-06-27T01:23:22.331040,15.80913807,.0000946,97.2849,198.9211,39.7807,320.3531,0,U,69496,999,246,.4354E-3,.84445E-3,0
STARLINK-37798,2026-131V,2026-06-27T04:00:03.000096,15.80858540,.0001069,97.2838,199.0561,99.3574,204.3816,0,U,69497,999,367,-.40891E-3,-.77922E-3,0
STARLINK-37853,2026-131W,2026-06-27T04:00:03.000096,15.80818999,.000092,97.2838,199.0656,80.4552,244.6632,0,U,69498,999,367,-.34458E-4,-.6738E-4,0
STARLINK-37849,2026-131X,2026-06-27T04:00:03.000096,15.80821246,.0001,97.2837,199.0632,82.8011,238.0392,0,U,69499,999,369,-.4503E-4,-.876E-4,0
STARLINK-37835,2026-131Y,2026-06-27T04:00:03.000096,15.80837810,.0001182,97.2841,199.0602,96.3108,215.9840,0,U,69500,999,259,-.20046E-3,-.38408E-3,0
STARLINK-37843,2026-131Z,2026-06-27T04:00:03.000096,15.80828410,.0001049,97.2841,199.0617,77.3996,239.1632,0,U,69501,999,367,-.81707E-4,-.15773E-3,0
2026-132A,2026-132A,2026-06-27T04:01:28.727904,14.99062259,.001321,97.6888,241.7115,232.6823,127.3197,0,U,69502,999,227,.10764E-3,.1249E-4,0
2026-132B,2026-132B,2026-06-27T04:00:11.196000,14.99147395,.0013116,97.6919,241.7187,234.8261,125.1734,0,U,69503,999,227,.84218E-4,.966E-5,0
BRO-22,2026-132C,2026-06-27T03:51:08.909856,14.99768679,.0014785,97.6852,241.7131,246.9957,112.9707,0,U,69504,999,227,.66297E-4,.761E-5,0
2026-132D,2026-132D,2026-06-27T03:08:45.438144,15.05198743,.0019055,97.6859,241.7390,255.9932,103.9176,0,U,69505,999,227,.28602E-3,.4033E-4,0
VERTECS,2026-132E,2026-06-27T03:34:50.086848,15.00918471,.0013388,97.6881,241.7364,269.0666,90.9024,0,U,69506,999,226,.21347E-3,.2663E-4,0
2026-132F,2026-132F,2026-06-26T19:20:25.002816,15.03045199,.0015163,97.6873,241.4048,260.6586,99.2924,0,U,69507,999,221,.86104E-4,.11E-4,0
STARLINK-37536,2026-133A,2026-06-27T04:00:03.000096,15.80833965,.0000952,53.1588,272.0953,84.2771,328.5786,0,U,69508,999,357,.56413E-3,.111891E-2,0
STARLINK-37341,2026-133B,2026-06-27T04:00:03.000096,15.80839375,.0001226,53.1591,272.0663,103.8787,323.2140,0,U,69509,999,357,.38704E-3,.76248E-3,0
STARLINK-36536,2026-133C,2026-06-27T04:00:03.000096,15.80801262,.0000932,53.1592,272.0349,74.4846,7.7294,0,U,69510,999,351,.78837E-3,.157241E-2,0
STARLINK-37420,2026-133D,2026-06-27T04:00:03.000096,15.80829943,.0000999,53.1590,271.9936,99.9775,1.8219,0,U,69511,999,346,.55932E-3,.110898E-2,0
STARLINK-37511,2026-133E,2026-06-27T04:00:03.000096,15.80823471,.000066,53.1590,272.0098,64.0363,30.2502,0,U,69512,999,346,.56098E-3,.1112E-2,0
STARLINK-37552,2026-133F,2026-06-27T04:00:03.000096,15.80833538,.000105,53.1591,271.9631,83.8450,33.1512,0,U,69513,999,346,.31489E-3,.61782E-3,0
STARLINK-37607,2026-133G,2026-06-27T04:00:03.000096,15.80793887,.0000726,53.1590,271.9483,67.0071,56.7358,0,U,69514,999,346,.86531E-3,.172914E-2,0
