STARLINK-37892          
1 69485U 26131H   26178.16670139 -.00073108  00000+0 -38367-3 0  9992
2 69485  97.2831 199.0362 0001368  84.1394 172.5979 15.80841778  3610
STARLINK-37893          
1 69486U 26131J   26178.16670139 -.00043338  00000+0 -22643-3 0  9995
2 69486  97.2834 199.0383 0000923 109.9700 151.0344 15.80837187  3695
STARLINK-37842          
1 69487U 26131K   26178.16670139 -.00053993  00000+0 -28256-3 0  9990
2 69487  97.2835 199.0401 0001288  88.2985 176.9824 15.80840570  3618
STARLINK-37449          
1 69488U 26131L   26178.16670139 -.00059204  00000+0 -31027-3 0  9992
2 69488  97.2835 199.0412 0001039  80.6434 188.9190 15.80828978  3707
STARLINK-37831          
1 69489U 26131M   26178.16670139 -.00076494  00000+0 -40155-3 0  9995
2 69489  97.2837 199.0433 0000933  86.3674 187.4605 15.80847270  2276
STARLINK-37879          
1 69490U 26131N   26178.16670139 -.00040140  00000+0 -20971-3 0  9990
2 69490  97.2837 199.0453 0001139  76.5217 201.5885 15.80823188  3612
STARLINK-37856          
1 69491U 26131P   26177.91668980  .00064993  00000+0  33791-3 0  9998
2 69491  97.2838 198.7630 0001341  90.9350 161.8346 15.80791088  3635
STARLINK-37568          
1 69492U 26131Q   26178.16670139 -.00014262  00000+0 -73812-4 0  9991
2 69492  97.2838 199.0493 0001154  80.9858 205.6663 15.80823133  3705
STARLINK-37855          
1 69493U 26131R   26178.05917231  .00072109  00000+0  37213-3 0  9993
2 69493  97.2837 198.9196 0001439  41.7597 318.3781 15.80931216  3721
STARLINK-37854          
1 69494U 26131S   26177.91668980  .00030326  00000+0  15854-3 0  9994
2 69494  97.2836 198.7675 0001018  88.4428 174.7041 15.80812769  3639
STARLINK-37789          
1 69495U 26131T   26178.16670139  .00022681  00000+0  11890-3 0  9993
2 69495  97.2841 199.0537 0000895 103.5222 195.9597 15.80805609  3692
STARLINK-37839          
1 69496U 26131U   26178.05789735  .00084445  00000+0  43540-3 0  9998
2 69496  97.2849 198.9211 0000946  39.7807 320.3531 15.80913807  2460
STARLINK-37798          
1 69497U 26131V   26178.16670139 -.00077922  00000+0 -40891-3 0  9998
2 69497  97.2838 199.0561 0001069  99.3574 204.3816 15.80858540  3672
STARLINK-37853          
1 69498U 26131W   26178.16670139 -.00006738  00000+0 -34458-4 0  9999
2 69498  97.2838 199.0656 0000920  80.4552 244.6632 15.80818999  3677
STARLINK-37849          
1 69499U 26131X   26178.16670139 -.00008760  00000+0 -45030-4 0  9995
2 69499  97.2837 199.0632 0001000  82.8011 238.0392 15.80821246  3698
STARLINK-37835          
1 69500U 26131Y   26178.16670139 -.00038408  00000+0 -20046-3 0  9999
2 69500  97.2841 199.0602 0001182  96.3108 215.9840 15.80837810  2595
STARLINK-37843          
1 69501U 26131Z   26178.16670139 -.00015773  00000+0 -81707-4 0  9992
2 69501  97.2841 199.0617 0001049  77.3996 239.1632 15.80828410  3671
2026-132A               
1 69502U 26132A   26178.16769361  .00001249  00000+0  10764-3 0  9995
2 69502  97.6888 241.7115 0013210 232.6823 127.3197 14.99062259  2272
2026-132B               
1 69503U 26132B   26178.16679625  .00000966  00000+0  84218-4 0  9990
2 69503  97.6919 241.7187 0013116 234.8261 125.1734 14.99147395  2270
BRO-22                  
1 69504U 26132C   26178.16051979  .00000761  00000+0  66297-4 0  9997
2 69504  97.6852 241.7131 0014785 246.9957 112.9707 14.99768679  2273
2026-132D               
1 69505U 26132D   26178.13108146  .00004033  00000+0  28602-3 0  9997
2 69505  97.6859 241.7390 0019055 255.9932 103.9176 15.05198743  2273
VERTECS                 
1 69506U 26132E   26178.14919082  .00002663  00000+0  21347-3 0  9994
2 69506  97.6881 241.7364 0013388 269.0666  90.9024 15.00918471  2262
2026-132F               
1 69507U 26132F   26177.80584494  .00001100  00000+0  86104-4 0  9990
2 69507  97.6873 241.4048 0015163 260.6586  99.2924 15.03045199  2218
STARLINK-37536          
1 69508U 26133A   26178.16670139  .00111891  00000+0  56413-3 0  9992
2 69508  53.1588 272.0953 0000952  84.2771 328.5786 15.80833965  3575
STARLINK-37341          
1 69509U 26133B   26178.16670139  .00076248  00000+0  38704-3 0  9992
2 69509  53.1591 272.0663 0001226 103.8787 323.2140 15.80839375  3575
STARLINK-36536          
1 69510U 26133C   26178.16670139  .00157241  00000+0  78837-3 0  9998
2 69510  53.1592 272.0349 0000932  74.4846   7.7294 15.80801262  3513
STARLINK-37420          
1 69511U 26133D   26178.16670139  .00110898  00000+0  55932-3 0  9997
2 69511  53.1590 271.9936 0000999  99.9775   1.8219 15.80829943  3460
STARLINK-37511          
1 69512U 26133E   26178.16670139  .00111200  00000+0  56098-3 0  9990
2 69512  53.1590 272.0098 0000660  64.0363  30.2502 15.80823471  3464
STARLINK-37552          
1 69513U 26133F   26178.16670139  .00061782  00000+0  31489-3 0  9997
2 69513  53.1591 271.9631 0001050  83.8450  33.1512 15.80833538  3465
STARLINK-37607          
1 69514U 26133G   26178.16670139  .00172914  00000+0  86531-3 0  9996
2 69514  53.1590 271.9483 0000726  67.0071  56.7358 15.80793887  3463
